NORAD_CAT_ID,OBJECT_NAME,OBJECT_TYPE,EPOCH,MEAN_MOTION,ECCENTRICITY,INCLINATION,RA_OF_ASC_NODE,ARG_OF_PERICENTER,MEAN_ANOMALY,BSTAR,MEAN_MOTION_DOT,MEAN_MOTION_DDOT,TLE_LINE0,TLE_LINE1,TLE_LINE2,SEMIMAJOR_AXIS,PERIOD,APOGEE,PERIGEE,DECAYED
53168.0,STARLINK-4105,PAYLOAD,2024-06-11 10:54:21,15.08843901,0.0001385,53.2162,140.2922,88.6022,271.5129,0.00015122,2.12e-05,0.0,0 STARLINK-4105,1 53168U 22083AN  24163.45441469  .00002120  00000-0  15122-3 0  9990,2 53168  53.2162 140.2922 0001385  88.6022 271.5129 15.08843901105313,6917.868,95.437,540.692,538.775,0.0
53168.0,STARLINK-4105,PAYLOAD,2024-06-12 04:23:36,15.08839073,0.0001354,53.2162,137.0212,94.2661,265.8486,0.00010972,1.459e-05,0.0,0 STARLINK-4105,1 53168U 22083AN  24164.18306003  .00001459  00000-0  10972-3 0  9997,2 53168  53.2162 137.0212 0001354  94.2661 265.8486 15.08839073106056,6917.883,95.438,540.685,538.812,0.0
53168.0,STARLINK-4105,PAYLOAD,2024-06-12 05:58:59,15.08839567,0.0001357,53.2161,136.7239,94.3682,265.7465,0.00011326,1.515e-05,0.0,0 STARLINK-4105,1 53168U 22083AN  24164.24929983  .00001515  00000-0  11326-3 0  9999,2 53168  53.2161 136.7239 0001357  94.3682 265.7465 15.08839567105432,6917.882,95.438,540.685,538.808,0.0
53168.0,STARLINK-4105,PAYLOAD,2024-06-12 21:52:51,15.08838452,0.0001368,53.2161,133.75,96.8916,263.2231,4.1165e-05,3.67e-06,0.0,0 STARLINK-4105,1 53168U 22083AN  24164.91170220  .00000367  00000-0  41165-4 0  9994,2 53168  53.2161 133.7500 0001368  96.8916 263.2231 15.08838452105536,6917.885,95.438,540.696,538.804,0.0
53168.0,STARLINK-4105,PAYLOAD,2024-06-13 09:00:32,15.08841825,0.0001359,53.2162,131.6685,96.1691,263.9456,4.0872e-05,3.63e-06,0.0,0 STARLINK-4105,1 53168U 22083AN  24165.37537981  .00000363  00000-0  40872-4 0  9996,2 53168  53.2162 131.6685 0001359  96.1691 263.9456 15.08841825106233,6917.875,95.437,540.68,538.8,0.0
53168.0,STARLINK-4105,PAYLOAD,2024-06-13 21:43:38,15.0883611,0.0001366,53.2163,129.2896,94.3507,265.7641,-1.0707e-05,-4.58e-06,0.0,0 STARLINK-4105,1 53168U 22083AN  24165.90530361 -.00000458  00000-0 -10707-4 0  9991,2 53168  53.2163 129.2896 0001366  94.3507 265.7641 15.08836110105680,6917.892,95.438,540.702,538.812,0.0
53168.0,STARLINK-4105,PAYLOAD,2024-06-14 08:51:19,15.08841618,0.0001351,53.2163,127.2082,92.3302,267.7845,5.3823e-05,5.69e-06,0.0,0 STARLINK-4105,1 53168U 22083AN  24166.36897875  .00000569  00000-0  53823-4 0  9995,2 53168  53.2163 127.2082 0001351  92.3302 267.7845 15.08841618105755,6917.875,95.437,540.675,538.806,0.0
53168.0,STARLINK-4105,PAYLOAD,2024-06-14 21:34:25,15.08837737,0.0001358,53.2164,124.8296,88.3822,271.7326,-5.9717e-06,-3.83e-06,0.0,0 STARLINK-4105,1 53168U 22083AN  24166.89890246 -.00000383  00000-0 -59717-5 0  9993,2 53168  53.2164 124.8296 0001358  88.3822 271.7326 15.08837737106460,6917.887,95.438,540.692,538.813,0.0
53168.0,STARLINK-4105,PAYLOAD,2024-06-15 08:42:06,15.08842438,0.0001352,53.2165,122.7477,91.1094,269.0053,0.00010561,1.393e-05,0.0,0 STARLINK-4105,1 53168U 22083AN  24167.36257685  .00001393  00000-0  10561-3 0  9992,2 53168  53.2165 122.7477 0001352  91.1094 269.0053 15.08842438105905,6917.873,95.437,540.673,538.803,0.0
53168.0,STARLINK-4105,PAYLOAD,2024-06-15 21:25:12,15.08827774,0.0001271,53.2165,120.3689,102.1009,258.0125,-5.588e-05,-1.177e-05,0.0,0 STARLINK-4105,1 53168U 22083AN  24167.89250908 -.00001177  00000-0 -55880-4 0  9997,2 53168  53.2165 120.3689 0001271 102.1009 258.0125 15.08827774105985,6917.918,95.438,540.662,538.903,0.0
53168.0,STARLINK-4105,PAYLOAD,2024-06-16 13:19:03,15.08840583,0.0001222,53.2167,117.3958,97.968,262.1451,4.0549e-05,3.58e-06,0.0,0 STARLINK-4105,1 53168U 22083AN  24168.55489992  .00000358  00000-0  40549-4 0  9992,2 53168  53.2167 117.3958 0001222  97.9680 262.1451 15.08840583106087,6917.879,95.438,540.589,538.898,0.0
53168.0,STARLINK-4105,PAYLOAD,2024-06-17 13:09:50,15.08839691,0.0001289,53.2171,112.9363,101.811,258.3027,9.0266e-06,-1.44e-06,0.0,0 STARLINK-4105,1 53168U 22083AN  24169.54850608 -.00000144  00000-0  90266-5 0  9994,2 53168  53.2171 112.9363 0001289 101.8110 258.3027 15.08839691106869,6917.881,95.438,540.638,538.855,0.0
53168.0,STARLINK-4105,PAYLOAD,2024-06-18 05:03:42,15.08831186,0.0001211,53.2174,109.9627,95.6475,264.4655,0.0001151,1.544e-05,0.0,0 STARLINK-4105,1 53168U 22083AN  24170.21091110  .00001544  00000-0  11510-3 0  9992,2 53168  53.2174 109.9627 0001211  95.6475 264.4655 15.08831186106967,6917.907,95.438,540.61,538.935,0.0
53168.0,STARLINK-4105,PAYLOAD,2024-06-18 13:00:37,15.08846289,0.0001231,53.2178,108.476,94.0763,266.037,0.00012809,1.752e-05,0.0,0 STARLINK-4105,1 53168U 22083AN  24170.54210103  .00001752  00000-0  12809-3 0  9996,2 53168  53.2178 108.4760 0001231  94.0763 266.0370 15.08846289107017,6917.861,95.437,540.578,538.875,0.0
53168.0,STARLINK-4105,PAYLOAD,2024-06-19 04:54:29,15.08836248,0.0001301,53.2176,105.5015,88.4934,271.6207,4.8747e-05,4.88e-06,0.0,0 STARLINK-4105,1 53168U 22083AN  24171.20451322  .00000488  00000-0  48747-4 0  9996,2 53168  53.2176 105.5015 0001301  88.4934 271.6207 15.08836248107117,6917.892,95.438,540.657,538.857,0.0
53168.0,STARLINK-4105,PAYLOAD,2024-06-19 12:51:25,15.08844289,0.0001316,53.2173,104.0149,83.2131,276.9011,8.7664e-05,1.108e-05,0.0,0 STARLINK-4105,1 53168U 22083AN  24171.53570701  .00001108  00000-0  87664-4 0  9996,2 53168  53.2173 104.0149 0001316  83.2131 276.9011 15.08844289107164,6917.867,95.437,540.643,538.822,0.0
53168.0,STARLINK-4105,PAYLOAD,2024-06-20 03:09:53,15.08841478,0.0001239,53.2172,101.3369,93.5619,266.5515,5.4887e-06,-2.01e-06,0.0,0 STARLINK-4105,1 53168U 22083AN  24172.13187219 -.00000201  00000-0  54887-5 0  9997,2 53168  53.2172 101.3369 0001239  93.5619 266.5515 15.08841478107257,6917.876,95.437,540.598,538.884,0.0
53168.0,STARLINK-4105,PAYLOAD,2024-06-20 12:42:11,15.08847469,0.0001091,53.2166,99.5517,107.0045,253.1067,5.444e-05,5.79e-06,0.0,0 STARLINK-4105,1 53168U 22083AN  24172.52930401  .00000579  00000-0  54440-4 0  9990,2 53168  53.2166  99.5517 0001091 107.0045 253.1067 15.08847469106689,6917.858,95.437,540.477,538.968,0.0
53168.0,STARLINK-4105,PAYLOAD,2024-06-20 19:03:45,15.08828607,0.0001314,53.2173,98.3645,93.4524,266.6618,2.1087e-05,4.8e-07,0.0,0 STARLINK-4105,1 53168U 22083AN  24172.79427760  .00000048  00000-0  21087-4 0  9990,2 53168  53.2173  98.3645 0001314  93.4524 266.6618 15.08828607106723,6917.915,95.438,540.689,538.871,0.0
53168.0,STARLINK-4105,PAYLOAD,2024-06-21 04:36:03,15.08839333,0.0001466,53.2181,96.5791,105.8468,254.2686,1.7801e-05,-5e-08,0.0,0 STARLINK-4105,1 53168U 22083AN  24173.19171201 -.00000005  00000-0  17801-4 0  9994,2 53168  53.2181  96.5791 0001466 105.8468 254.2686 15.08839333107410,6917.882,95.438,540.762,538.733,0.0
53168.0,STARLINK-4105,PAYLOAD,2024-06-22 04:26:50,15.08846592,0.0001415,53.2177,92.1185,120.0883,240.0249,1.0109e-05,-1.27e-06,0.0,0 STARLINK-4105,1 53168U 22083AN  24174.18530575 -.00000127  00000-0  10109-4 0  9996,2 53168  53.2177  92.1185 0001415 120.0883 240.0249 15.08846592107567,6917.86,95.437,540.704,538.746,0.0
53168.0,STARLINK-4105,PAYLOAD,2024-06-22 18:45:19,15.0883428,0.0001411,53.2175,89.4418,107.5614,252.5532,5.1691e-05,5.35e-06,0.0,0 STARLINK-4105,1 53168U 22083AN  24174.78147282  .00000535  00000-0  51691-4 0  9994,2 53168  53.2175  89.4418 0001411 107.5614 252.5532 15.08834280107655,6917.898,95.438,540.739,538.787,0.0
53168.0,STARLINK-4105,PAYLOAD,2024-06-22 21:56:05,15.08830774,0.0001406,53.2177,88.8469,108.3187,251.7958,2.0483e-05,3.8e-07,0.0,0 STARLINK-4105,1 53168U 22083AN  24174.91395633  .00000038  00000-0  20483-4 0  9997,2 53168  53.2177  88.8469 0001406 108.3187 251.7958 15.08830774107044,6917.909,95.438,540.746,538.801,0.0
53168.0,STARLINK-4105,PAYLOAD,2024-06-22 23:31:29,15.08830635,0.00014,53.2177,88.5496,108.2547,251.8598,1.8902e-05,1.3e-07,0.0,0 STARLINK-4105,1 53168U 22083AN  24174.98019678  .00000013  00000-0  18902-4 0  9992,2 53168  53.2177  88.5496 0001400 108.2547 251.8598 15.08830635107052,6917.909,95.438,540.743,538.806,0.0
53168.0,STARLINK-4105,PAYLOAD,2024-06-23 18:36:05,15.08851327,9.82e-05,53.2168,84.982,88.1097,272.0007,8.9164e-05,1.132e-05,0.0,0 STARLINK-4105,1 53168U 22083AN  24175.77506117  .00001132  00000-0  89164-4 0  9990,2 53168  53.2168  84.9820 0000982  88.1097 272.0007 15.08851327107807,6917.846,95.437,540.39,539.031,0.0
53168.0,STARLINK-4105,PAYLOAD,2024-06-23 21:46:51,15.08855952,0.000108,53.2169,84.3885,72.6297,287.4813,7.4338e-05,8.96e-06,0.0,0 STARLINK-4105,1 53168U 22083AN  24175.90753910  .00000896  00000-0  74338-4 0  9993,2 53168  53.2169  84.3885 0001080  72.6297 287.4813 15.08855952107198,6917.832,95.437,540.444,538.95,0.0
53168.0,STARLINK-4105,PAYLOAD,2024-06-24 00:57:37,15.0885844,0.0001216,53.2173,83.7914,92.6654,267.4478,0.00018835,2.712e-05,0.0,0 STARLINK-4105,1 53168U 22083AN  24176.04001167  .00002712  00000-0  18835-3 0  9997,2 53168  53.2173  83.7914 0001216  92.6654 267.4478 15.08858440107841,6917.824,95.436,540.53,538.848,0.0
53168.0,STARLINK-4105,PAYLOAD,2024-06-24 21:37:39,15.08833141,0.0001557,53.2181,79.926,101.768,258.3487,5.7211e-05,6.22e-06,0.0,0 STARLINK-4105,1 53168U 22083AN  24176.90115211  .00000622  00000-0  57211-4 0  9998,2 53168  53.2181  79.9260 0001557 101.7680 258.3487 15.08833141107345,6917.901,95.438,540.843,538.689,0.0
53168.0,STARLINK-4105,PAYLOAD,2024-06-24 23:13:02,15.08830078,0.0001293,53.2161,79.6254,87.6549,272.4591,1.8323e-05,4e-08,0.0,0 STARLINK-4105,1 53168U 22083AN  24176.96739568  .00000004  00000-0  18323-4 0  9996,2 53168  53.2161  79.6254 0001293  87.6549 272.4591 15.08830078107985,6917.911,95.438,540.67,538.881,0.0
53168.0,STARLINK-4105,PAYLOAD,2024-06-25 21:28:27,15.08837117,0.0001362,53.2161,75.4659,87.9246,272.1902,-0.00012865,-2.335e-05,0.0,0 STARLINK-4105,1 53168U 22083AN  24177.89475942 -.00002335  00000-0 -12865-3 0  9997,2 53168  53.2161  75.4659 0001362  87.9246 272.1902 15.08837117107492,6917.889,95.438,540.696,538.812,0.0
